OBJECT_NAME,OBJECT_ID,EPOCH,MEAN_MOTION,ECCENTRICITY,INCLINATION,RA_OF_ASC_NODE,ARG_OF_PERICENTER,MEAN_ANOMALY,EPHEMERIS_TYPE,CLASSIFICATION_TYPE,NORAD_CAT_ID,ELEMENT_SET_NO,REV_AT_EPOCH,BSTAR,MEAN_MOTION_DOT,MEAN_MOTION_DDOT
ONEWEB-0131,2020-100V,2026-06-26T17:11:13.617312,13.12443465,.0001647,87.8943,348.7743,95.7278,264.4038,0,U,47277,999,26593,-.27898E-4,.3E-7,0
ONEWEB-0132,2020-100W,2026-06-26T17:52:40.715616,13.12444312,.0001747,87.8945,348.7707,93.2112,266.9216,0,U,47278,999,26583,-.10746E-2,-.374E-5,0
ONEWEB-0133,2020-100X,2026-06-26T18:16:53.707008,13.12443212,.0001662,87.8956,348.7444,94.0637,266.0682,0,U,47279,999,26599,.77427E-3,.291E-5,0
ONEWEB-0134,2020-100Y,2026-06-26T17:33:09.374400,13.12441569,.0001819,87.8955,348.7476,101.0750,259.0583,0,U,47280,999,26596,-.10533E-2,-.366E-5,0
ONEWEB-0135,2020-100Z,2026-06-26T16:51:42.371136,13.12441432,.0001678,87.8943,348.7749,102.1906,257.9411,0,U,47281,999,26598,.11471E-2,.425E-5,0
ONEWEB-0136,2020-100AA,2026-06-26T17:18:31.711104,13.12441169,.0001816,87.8951,348.7534,103.2009,256.9322,0,U,47282,999,26591,-.57617E-3,-.195E-5,0
ONEWEB-0137,2020-100AB,2026-06-26T18:07:20.056800,13.12443814,.0001929,87.8954,348.7570,89.0656,271.0694,0,U,47283,999,26582,.33941E-3,.135E-5,0
ONEWEB-0138,2020-100AC,2026-06-26T17:35:36.261312,13.12444473,.0001946,87.8953,348.7666,98.3710,261.7639,0,U,47284,999,26590,-.29427E-2,-.1046E-4,0
ONEWEB-0139,2020-100AD,2026-06-26T18:34:22.564992,13.12441642,.000186,87.8951,348.7447,94.3574,265.7767,0,U,47285,999,26598,.13125E-2,.485E-5,0
ONEWEB-0140,2020-100AE,2026-06-26T17:28:17.082336,13.12441602,.0001665,87.8952,348.7448,92.5635,267.5684,0,U,47286,999,26594,-.93723E-3,-.324E-5,0
ONEWEB-0141,2020-100AF,2026-06-26T18:33:58.480992,13.12441781,.0002065,87.8952,348.7406,87.7117,272.4248,0,U,47287,999,26593,.10616E-2,.395E-5,0
ONEWEB-0142,2020-100AG,2026-06-26T18:17:18.902112,13.12444591,.0002237,87.8946,348.7640,94.7726,265.3658,0,U,47288,999,26592,.10702E-2,.398E-5,0
ONEWEB-0143,2020-100AH,2026-06-26T11:12:36.520704,13.12441995,.0001843,87.8951,348.8218,92.0957,268.0382,0,U,47289,999,26586,.12908E-2,.477E-5,0
ONEWEB-0144,2020-100AJ,2026-06-26T17:50:14.709120,13.12445629,.000203,87.8957,348.7412,102.3849,257.7507,0,U,47290,999,26582,-.95373E-3,-.33E-5,0
ONEWEB-0145,2020-100AK,2026-06-26T17:08:46.668192,13.12440890,.0001915,87.8947,348.7739,94.9017,265.2330,0,U,47291,999,26601,.14708E-3,.66E-6,0
ONEWEB-0146,2020-100AL,2026-06-26T17:03:54.224064,13.12440895,.0001554,87.8954,348.7669,85.6624,274.4682,0,U,47292,999,26592,.48099E-3,.186E-5,0
ONEWEB-0147,2020-100AM,2026-06-26T18:04:53.714208,13.12443740,.0001713,87.8953,348.7403,96.2914,263.8409,0,U,47293,999,26582,.12396E-3,.57E-6,0
ONEWEB-0115,2021-025A,2026-06-26T14:55:18.552000,13.13469900,.0001773,87.8965,318.3449,97.6305,262.5025,0,U,48042,999,25483,.72058E-3,.276E-5,0
ONEWEB-0152,2021-025B,2026-06-26T09:45:42.519168,13.13470802,.0001724,87.8970,318.3850,96.2010,263.9315,0,U,48043,999,25476,-.49293E-3,-.167E-5,0
ONEWEB-0153,2021-025C,2026-06-26T16:32:48.079104,13.13471086,.0001953,87.8962,318.3308,99.1702,260.9648,0,U,48044,999,25479,.83938E-3,.319E-5,0
ONEWEB-0154,2021-025D,2026-06-26T16:27:55.627200,13.13469505,.0001729,87.8966,318.3296,102.4844,257.6478,0,U,48045,999,25475,.88343E-3,.335E-5,0
ONEWEB-0116,2021-025E,2026-06-26T15:34:20.157024,13.13451683,.0001795,87.8966,318.3350,97.9660,262.1673,0,U,48046,999,25489,-.5878E-2,-.2133E-4,0
ONEWEB-0150,2021-025F,2026-06-26T15:00:10.660032,13.13469797,.0002005,87.8973,318.3361,94.0101,266.1257,0,U,48047,999,25478,.47885E-3,.188E-5,0
ONEWEB-0107,2021-025G,2026-06-26T15:02:36.898080,13.13469930,.0002101,87.8971,318.3317,101.0716,259.0649,0,U,48048,999,25476,.33412E-3,.135E-5,0
ONEWEB-0101,2021-025H,2026-06-26T15:58:41.509344,13.13466387,.000155,87.8961,318.3380,103.2445,256.8857,0,U,48049,999,25474,-.24975E-3,-.78E-6,0
ONEWEB-0113,2021-025J,2026-06-26T11:00:22.493088,13.13893044,.0001847,87.8964,318.2893,94.2565,265.8775,0,U,48050,999,25482,.92575E-3,.353E-5,0
ONEWEB-0112,2021-025K,2026-06-26T15:09:55.238112,13.13470851,.0001934,87.8971,318.3289,105.2683,254.8660,0,U,48051,999,25483,.32971E-5,.14E-6,0
ONEWEB-0156,2021-025L,2026-06-26T15:22:06.144960,13.13470640,.0001985,87.8971,318.3367,97.9695,262.1660,0,U,48052,999,25481,-.51547E-3,-.175E-5,0
ONEWEB-0161,2021-025M,2026-06-26T11:06:08.874144,13.13471276,.000206,87.8967,318.3735,98.8340,261.3022,0,U,48053,999,25472,.10813E-2,.408E-5,0
ONEWEB-0158,2021-025N,2026-06-26T15:36:43.333920,13.13472055,.0001646,87.8970,318.3337,101.2513,258.8801,0,U,48054,999,25487,-.66041E-3,-.228E-5,0
