ONEWEB-0131             
1 47277U 20100V   26177.71612983  .00000003  00000+0 -27898-4 0  9991
2 47277  87.8943 348.7743 0001647  95.7278 264.4038 13.12443465265935
ONEWEB-0132             
1 47278U 20100W   26177.74491569 -.00000374  00000+0 -10746-2 0  9994
2 47278  87.8945 348.7707 0001747  93.2112 266.9216 13.12444312265835
ONEWEB-0133             
1 47279U 20100X   26177.76173272  .00000291  00000+0  77427-3 0  9991
2 47279  87.8956 348.7444 0001662  94.0637 266.0682 13.12443212265996
ONEWEB-0134             
1 47280U 20100Y   26177.73135850 -.00000366  00000+0 -10533-2 0  9999
2 47280  87.8955 348.7476 0001819 101.0750 259.0583 13.12441569265963
ONEWEB-0135             
1 47281U 20100Z   26177.70257374  .00000425  00000+0  11471-2 0  9999
2 47281  87.8943 348.7749 0001678 102.1906 257.9411 13.12441432265980
ONEWEB-0136             
1 47282U 20100AA  26177.72120036 -.00000195  00000+0 -57617-3 0  9995
2 47282  87.8951 348.7534 0001816 103.2009 256.9322 13.12441169265912
ONEWEB-0137             
1 47283U 20100AB  26177.75509325  .00000135  00000+0  33941-3 0  9997
2 47283  87.8954 348.7570 0001929  89.0656 271.0694 13.12443814265829
ONEWEB-0138             
1 47284U 20100AC  26177.73305858 -.00001046  00000+0 -29427-2 0  9998
2 47284  87.8953 348.7666 0001946  98.3710 261.7639 13.12444473265904
ONEWEB-0139             
1 47285U 20100AD  26177.77387228  .00000485  00000+0  13125-2 0  9996
2 47285  87.8951 348.7447 0001860  94.3574 265.7767 13.12441642265988
ONEWEB-0140             
1 47286U 20100AE  26177.72797549 -.00000324  00000+0 -93723-3 0  9990
2 47286  87.8952 348.7448 0001665  92.5635 267.5684 13.12441602265942
ONEWEB-0141             
1 47287U 20100AF  26177.77359353  .00000395  00000+0  10616-2 0  9998
2 47287  87.8952 348.7406 0002065  87.7117 272.4248 13.12441781265931
ONEWEB-0142             
1 47288U 20100AG  26177.76202433  .00000398  00000+0  10702-2 0  9993
2 47288  87.8946 348.7640 0002237  94.7726 265.3658 13.12444591265927
ONEWEB-0143             
1 47289U 20100AH  26177.46708936  .00000477  00000+0  12908-2 0  9998
2 47289  87.8951 348.8218 0001843  92.0957 268.0382 13.12441995265867
ONEWEB-0144             
1 47290U 20100AJ  26177.74322580 -.00000330  00000+0 -95373-3 0  9996
2 47290  87.8957 348.7412 0002030 102.3849 257.7507 13.12445629265822
ONEWEB-0145             
1 47291U 20100AK  26177.71442903  .00000066  00000+0  14708-3 0  9993
2 47291  87.8947 348.7739 0001915  94.9017 265.2330 13.12440890266013
ONEWEB-0146             
1 47292U 20100AL  26177.71104426  .00000186  00000+0  48099-3 0  9992
2 47292  87.8954 348.7669 0001554  85.6624 274.4682 13.12440895265920
ONEWEB-0147             
1 47293U 20100AM  26177.75339947  .00000057  00000+0  12396-3 0  9993
2 47293  87.8953 348.7403 0001713  96.2914 263.8409 13.12443740265823
ONEWEB-0115             
1 48042U 21025A   26177.62174250  .00000276  00000+0  72058-3 0  9997
2 48042  87.8965 318.3449 0001773  97.6305 262.5025 13.13469900254833
ONEWEB-0152             
1 48043U 21025B   26177.40674212 -.00000167  00000+0 -49293-3 0  9993
2 48043  87.8970 318.3850 0001724  96.2010 263.9315 13.13470802254762
ONEWEB-0153             
1 48044U 21025C   26177.68944536  .00000319  00000+0  83938-3 0  9994
2 48044  87.8962 318.3308 0001953  99.1702 260.9648 13.13471086254790
ONEWEB-0154             
1 48045U 21025D   26177.68606050  .00000335  00000+0  88343-3 0  9994
2 48045  87.8966 318.3296 0001729 102.4844 257.6478 13.13469505254750
ONEWEB-0116             
1 48046U 21025E   26177.64884441 -.00002133  00000+0 -58780-2 0  9994
2 48046  87.8966 318.3350 0001795  97.9660 262.1673 13.13451683254890
ONEWEB-0150             
1 48047U 21025F   26177.62512338  .00000188  00000+0  47885-3 0  9997
2 48047  87.8973 318.3361 0002005  94.0101 266.1257 13.13469797254789
ONEWEB-0107             
1 48048U 21025G   26177.62681595  .00000135  00000+0  33412-3 0  9993
2 48048  87.8971 318.3317 0002101 101.0716 259.0649 13.13469930254760
ONEWEB-0101             
1 48049U 21025H   26177.66575821 -.00000078  00000+0 -24975-3 0  9994
2 48049  87.8961 318.3380 0001550 103.2445 256.8857 13.13466387254747
ONEWEB-0113             
1 48050U 21025J   26177.45859367  .00000353  00000+0  92575-3 0  9998
2 48050  87.8964 318.2893 0001847  94.2565 265.8775 13.13893044254823
ONEWEB-0112             
1 48051U 21025K   26177.63188933  .00000014  00000+0  32971-5 0  9993
2 48051  87.8971 318.3289 0001934 105.2683 254.8660 13.13470851254832
ONEWEB-0156             
1 48052U 21025L   26177.64034890 -.00000175  00000+0 -51547-3 0  9995
2 48052  87.8971 318.3367 0001985  97.9695 262.1660 13.13470640254812
ONEWEB-0161             
1 48053U 21025M   26177.46260271  .00000408  00000+0  10813-2 0  9997
2 48053  87.8967 318.3735 0002060  98.8340 261.3022 13.13471276254728
ONEWEB-0158             
1 48054U 21025N   26177.65050155 -.00000228  00000+0 -66041-3 0  9994
2 48054  87.8970 318.3337 0001646 101.2513 258.8801 13.13472055254879
